[{"OBJECT_NAME":"TOMORROW-R2","OBJECT_ID":"2023-084AG","EPOCH":"2026-03-09T21:19:23.098656","MEAN_MOTION":15.71879583,"ECCENTRICITY":0.00051142,"INCLINATION":97.5895,"RA_OF_ASC_NODE":222.1734,"ARG_OF_PERICENTER":248.1295,"MEAN_ANOMALY":111.9424,"EPHEMERIS_TYPE":0,"CLASSIFICATION_TYPE":"U","NORAD_CAT_ID":56962,"ELEMENT_SET_NO":999,"REV_AT_EPOCH":15332,"BSTAR":0.00081619373,"MEAN_MOTION_DOT":0.00107013,"MEAN_MOTION_DDOT":0},{"OBJECT_NAME":"STARLINK-11730 [DTC]","OBJECT_ID":"2025-107L","EPOCH":"2026-03-09T16:00:03.000096","MEAN_MOTION":15.70909054,"ECCENTRICITY":0.00018691,"INCLINATION":43.0006,"RA_OF_ASC_NODE":98.6858,"ARG_OF_PERICENTER":273.7026,"MEAN_ANOMALY":348.0505,"EPHEMERIS_TYPE":0,"CLASSIFICATION_TYPE":"U","NORAD_CAT_ID":64074,"ELEMENT_SET_NO":999,"REV_AT_EPOCH":599,"BSTAR":-4.5450254e-5,"MEAN_MOTION_DOT":-6.294e-5,"MEAN_MOTION_DDOT":0}]
